{
  "type": "FeatureCollection",
  "features": [
    {
      "type": "Feature",
      "properties": {
        "norad_id": 31516,
        "name": "FENGYUN 1C DEB",
        "group": "fengyun-1c-debris",
        "lat": -30.941794980120267,
        "lon": -86.1537451667732,
        "alt_km": 727.7415916825803,
        "timestamp": "2025-12-09T07:41:33.491368+00:00",
        "meta_object_name": "FENGYUN 1C DEB",
        "meta_object_id": "1999-025BXF",
        "meta_epoch": "2025-12-08T07:14:21.531840",
        "meta_mean_motion": 14.25394407,
        "meta_eccentricity": 0.0148276,
        "meta_inclination": 98.8322,
        "meta_ra_of_asc_node": 98.1684,
        "meta_arg_of_pericenter": 251.4703,
        "meta_mean_anomaly": 135.3971,
        "meta_ephemeris_type": 0,
        "meta_classification_type": "U",
        "meta_norad_cat_id": 31516,
        "meta_element_set_no": 999,
        "meta_rev_at_epoch": 96429,
        "meta_bstar": 0.00084631131,
        "meta_mean_motion_dot": 2.192e-05,
        "meta_mean_motion_ddot": 0,
        "tle_line1": "1 31516U 99025BXF 25342.30163810  .00002192  00000+0  84631-3 0  9997",
        "tle_line2": "2 31516  98.8322  98.1684 0148276 251.4703 135.3971 14.25394407964294"
      },
      "geometry": {
        "type": "Point",
        "coordinates": [
          -86.1537451667732,
          -30.941794980120267
        ]
      }
    },
    {
      "type": "Feature",
      "properties": {
        "norad_id": 31519,
        "name": "FENGYUN 1C DEB",
        "group": "fengyun-1c-debris",
        "lat": -3.013933390278339,
        "lon": -19.58544624022903,
        "alt_km": 826.1931003527452,
        "timestamp": "2025-12-09T07:41:33.491379+00:00",
        "meta_object_name": "FENGYUN 1C DEB",
        "meta_object_id": "1999-025BXJ",
        "meta_epoch": "2025-12-07T05:05:40.331040",
        "meta_mean_motion": 14.23381641,
        "meta_eccentricity": 0.00517229,
        "meta_inclination": 98.5731,
        "meta_ra_of_asc_node": 337.9057,
        "meta_arg_of_pericenter": 258.9557,
        "meta_mean_anomaly": 100.5802,
        "meta_ephemeris_type": 0,
        "meta_classification_type": "U",
        "meta_norad_cat_id": 31519,
        "meta_element_set_no": 999,
        "meta_rev_at_epoch": 64686,
        "meta_bstar": 0.00080132914,
        "meta_mean_motion_dot": 1.8e-05,
        "meta_mean_motion_ddot": 0,
        "tle_line1": "1 31519U 99025BXJ 25341.21227235  .00001800  00000+0  80133-3 0  9999",
        "tle_line2": "2 31519  98.5731 337.9057 0051722 258.9557 100.5802 14.23381641646865"
      },
      "geometry": {
        "type": "Point",
        "coordinates": [
          -19.58544624022903,
          -3.013933390278339
        ]
      }
    },
    {
      "type": "Feature",
      "properties": {
        "norad_id": 31522,
        "name": "FENGYUN 1C DEB",
        "group": "fengyun-1c-debris",
        "lat": -48.53877210543569,
        "lon": 11.661811644722942,
        "alt_km": 892.4166242651854,
        "timestamp": "2025-12-09T07:41:33.491388+00:00",
        "meta_object_name": "FENGYUN 1C DEB",
        "meta_object_id": "1999-025BXM",
        "meta_epoch": "2025-12-07T08:02:15.887040",
        "meta_mean_motion": 14.03985195,
        "meta_eccentricity": 0.00431068,
        "meta_inclination": 98.7082,
        "meta_ra_of_asc_node": 359.7695,
        "meta_arg_of_pericenter": 215.7743,
        "meta_mean_anomaly": 144.0536,
        "meta_ephemeris_type": 0,
        "meta_classification_type": "U",
        "meta_norad_cat_id": 31522,
        "meta_element_set_no": 999,
        "meta_rev_at_epoch": 94920,
        "meta_bstar": 0.0010143064,
        "meta_mean_motion_dot": 1.574e-05,
        "meta_mean_motion_ddot": 0,
        "tle_line1": "1 31522U 99025BXM 25341.33490610  .00001574  00000+0  10143-2 0  9996",
        "tle_line2": "2 31522  98.7082 359.7695 0043106 215.7743 144.0536 14.03985195949208"
      },
      "geometry": {
        "type": "Point",
        "coordinates": [
          11.661811644722942,
          -48.53877210543569
        ]
      }
    },
    {
      "type": "Feature",
      "properties": {
        "norad_id": 31523,
        "name": "FENGYUN 1C DEB",
        "group": "fengyun-1c-debris",
        "lat": 32.84298825557635,
        "lon": 25.224569066422188,
        "alt_km": 842.0971224388977,
        "timestamp": "2025-12-09T07:41:33.491399+00:00",
        "meta_object_name": "FENGYUN 1C DEB",
        "meta_object_id": "1999-025BXN",
        "meta_epoch": "2025-12-08T09:33:13.838976",
        "meta_mean_motion": 14.13859441,
        "meta_eccentricity": 0.0039322,
        "meta_inclination": 98.7579,
        "meta_ra_of_asc_node": 30.0319,
        "meta_arg_of_pericenter": 122.087,
        "meta_mean_anomaly": 259.1913,
        "meta_ephemeris_type": 0,
        "meta_classification_type": "U",
        "meta_norad_cat_id": 31523,
        "meta_element_set_no": 999,
        "meta_rev_at_epoch": 95946,
        "meta_bstar": 4.7906515e-05,
        "meta_mean_motion_dot": 4.8e-07,
        "meta_mean_motion_ddot": 0,
        "tle_line1": "1 31523U 99025BXN 25342.39807684  .00000048  00000+0  47907-4 0  9992",
        "tle_line2": "2 31523  98.7579  30.0319 0039322 122.0870 259.1913 14.13859441959469"
      },
      "geometry": {
        "type": "Point",
        "coordinates": [
          25.224569066422188,
          32.84298825557635
        ]
      }
    },
    {
      "type": "Feature",
      "properties": {
        "norad_id": 31527,
        "name": "FENGYUN 1C DEB",
        "group": "fengyun-1c-debris",
        "lat": 41.50930716098714,
        "lon": -22.65373012433743,
        "alt_km": 1503.4966035395546,
        "timestamp": "2025-12-09T07:41:33.491409+00:00",
        "meta_object_name": "FENGYUN 1C DEB",
        "meta_object_id": "1999-025BXS",
        "meta_epoch": "2025-12-07T16:52:20.794080",
        "meta_mean_motion": 13.23396066,
        "meta_eccentricity": 0.04500434,
        "meta_inclination": 98.893,
        "meta_ra_of_asc_node": 147.9974,
        "meta_arg_of_pericenter": 312.678,
        "meta_mean_anomaly": 43.7239,
        "meta_ephemeris_type": 0,
        "meta_classification_type": "U",
        "meta_norad_cat_id": 31527,
        "meta_element_set_no": 999,
        "meta_rev_at_epoch": 90123,
        "meta_bstar": 0.00087176212,
        "meta_mean_motion_dot": 5.94e-06,
        "meta_mean_motion_ddot": 0,
        "tle_line1": "1 31527U 99025BXS 25341.70301845  .00000594  00000+0  87176-3 0  9995",
        "tle_line2": "2 31527  98.8930 147.9974 0450043 312.6780  43.7239 13.23396066901233"
      },
      "geometry": {
        "type": "Point",
        "coordinates": [
          -22.65373012433743,
          41.50930716098714
        ]
      }
    },
    {
      "type": "Feature",
      "properties": {
        "norad_id": 31531,
        "name": "FENGYUN 1C DEB",
        "group": "fengyun-1c-debris",
        "lat": 72.01668760913043,
        "lon": -124.79476764321387,
        "alt_km": 939.2094356724583,
        "timestamp": "2025-12-09T07:41:33.491420+00:00",
        "meta_object_name": "FENGYUN 1C DEB",
        "meta_object_id": "1999-025BXW",
        "meta_epoch": "2025-12-08T09:26:27.930048",
        "meta_mean_motion": 14.35600146,
        "meta_eccentricity": 0.02440106,
        "meta_inclination": 98.3833,
        "meta_ra_of_asc_node": 27.2832,
        "meta_arg_of_pericenter": 281.6378,
        "meta_mean_anomaly": 75.7516,
        "meta_ephemeris_type": 0,
        "meta_classification_type": "U",
        "meta_norad_cat_id": 31531,
        "meta_element_set_no": 999,
        "meta_rev_at_epoch": 63872,
        "meta_bstar": 0.00133992,
        "meta_mean_motion_dot": 5.371e-05,
        "meta_mean_motion_ddot": 0,
        "tle_line1": "1 31531U 99025BXW 25342.39337882  .00005371  00000+0  13399-2 0  9999",
        "tle_line2": "2 31531  98.3833  27.2832 0244010 281.6378  75.7516 14.35600146638726"
      },
      "geometry": {
        "type": "Point",
        "coordinates": [
          -124.79476764321387,
          72.01668760913043
        ]
      }
    },
    {
      "type": "Feature",
      "properties": {
        "norad_id": 31533,
        "name": "FENGYUN 1C DEB",
        "group": "fengyun-1c-debris",
        "lat": 10.057994714836916,
        "lon": -126.21982430032276,
        "alt_km": 754.8051834377484,
        "timestamp": "2025-12-09T07:41:33.491430+00:00",
        "meta_object_name": "FENGYUN 1C DEB",
        "meta_object_id": "1999-025BXY",
        "meta_epoch": "2025-12-08T23:14:07.411776",
        "meta_mean_motion": 14.27615034,
        "meta_eccentricity": 0.00658352,
        "meta_inclination": 98.9608,
        "meta_ra_of_asc_node": 235.0227,
        "meta_arg_of_pericenter": 0.4131,
        "meta_mean_anomaly": 359.7092,
        "meta_ephemeris_type": 0,
        "meta_classification_type": "U",
        "meta_norad_cat_id": 31533,
        "meta_element_set_no": 999,
        "meta_rev_at_epoch": 66069,
        "meta_bstar": 0.00060688397,
        "meta_mean_motion_dot": 1.483e-05,
        "meta_mean_motion_ddot": 0,
        "tle_line1": "1 31533U 99025BXY 25342.96814134  .00001483  00000+0  60688-3 0  9998",
        "tle_line2": "2 31533  98.9608 235.0227 0065835   0.4131 359.7092 14.27615034660699"
      },
      "geometry": {
        "type": "Point",
        "coordinates": [
          -126.21982430032276,
          10.057994714836916
        ]
      }
    }
  ]
}